*******************************************************************************
JPL/HORIZONS                  4 Vesta (A807 FA)            2024-May-20 08:04:00
Rec #:       4 (+COV) Soln.date: 2021-Apr-13_11:15:57   # obs: 9451 (1950-2021)
 
IAU76/J2000 helio. ecliptic osc. elements (au, days, deg., period=Julian yrs):
 
  EPOCH=  2458849.5 ! 2020-Jan-01.00 (TDB)         Residual RMS= .47385
   EC= .08857261385730482  QR= 2.15270823108896    TP= 2458247.8038331456
   OM= 103.8092892453337   W=  150.8357762126256   IN= 7.14181494423702
   A= 2.361908654291772    MA= 163.3754032354997   ADIST= 2.571109077494583
   PER= 3.62997            N= .271524753           ANGMOM= .026333145
   DAN= 2.53982            DDN= 2.17514            L= 254.8345779
   B= 3.4734318            MOID= 1.13987994        TP= 2018-May-09.3038331456
 
Asteroid physical parameters (km, seconds, rotational period in hours):
   GM= 17.28824            RAD= 262.7              ROTPER= 5.342128
   H= 3.25                 G= .320                 B-V= .782
                           ALBEDO= .4228           STYP= V

ASTEROID comments: 
1: soln ref.= JPL#36, OCC=0           radar(2977 delay, 0 Dop
2: source=ORB
*******************************************************************************

  

*******************************************************************************
Ephemeris / WWW_USER Mon May 20 08:04:00 2024 Pasadena, USA      / Horizons    
*******************************************************************************
Target body name: 4 Vesta (A807 FA)               {source: JPL#36}
Center body name: Sun (10)                        {source: DE441}
Center-site name: BODYCENTRIC
*******************************************************************************
Start time      : A.D. 1900-Jan-01 00:00:00.0000 UT      
Stop  time      : A.D. 2200-Jan-01 00:00:00.0000 UT      
Step-size       : 1 calendar month
*******************************************************************************
Target pole/equ : IAU                             {East-longitude positive}
Target radii    : 289.0, 280.0, 229.0 km          {Equator_a, b, pole_c}       
Center geodetic : 0.0, 0.0, -695700.0             {E-lon(deg),Lat(deg),Alt(km)}
Center cylindric: 0.0, 0.0, 0.0                   {E-lon(deg),Dxy(km),Dz(km)}
Center pole/equ : IAU_SUN                         {East-longitude positive}
Center radii    : 695700.0, 695700.0, 695700.0 km {Equator_a, b, pole_c}       
Target primary  : Sun
Vis. interferer : None
Rel. light bend : Sun                             {source: DE441}
Rel. lght bnd GM: 1.3271E+11 km^3/s^2                                          
Small-body perts: Yes                             {source: SB441-N16}
Atmos refraction: NO (AIRLESS)
RA format       : DEG
Time format     : CAL 
Calendar mode   : Mixed Julian/Gregorian
EOP file        : eop.240517.p240810                                           
EOP coverage    : DATA-BASED 1962-JAN-20 TO 2024-MAY-17. PREDICTS-> 2024-AUG-09
Units conversion: 1 au= 149597870.700 km, c= 299792.458 km/s, 1 day= 86400.0 s 
Table cut-offs 1: Elevation (-90.0deg=NO ),Airmass     n.a.    , Daylight (NO )
Table cut-offs 2: Solar elongation (  0.0,180.0=NO ),Local Hour Angle( 0.0=NO )
Table cut-offs 3: RA/DEC angular rate (     0.0=NO )                           
Table format    : Comma Separated Values (spreadsheet)
*******************************************************************************
Initial IAU76/J2000 heliocentric ecliptic osculating elements (au, days, deg.):
  EPOCH=  2458849.5 ! 2020-Jan-01.00 (TDB)         Residual RMS= .47385        
   EC= .08857261385730482  QR= 2.15270823108896    TP= 2458247.8038331456      
   OM= 103.8092892453337   W=  150.8357762126256   IN= 7.14181494423702        
  Equivalent ICRF heliocentric cartesian coordinates (au, au/d):
   X= 1.243605461680222E+00  Y= 2.133870405923554E+00  Z= 6.874866847781977E-01
  VX=-8.779290950353064E-03 VY= 4.462599423343603E-03 VZ= 2.927653651039283E-03
Asteroid physical parameters (km, seconds, rotational period in hours):        
   GM= 17.28824            RAD= 262.7              ROTPER= 5.342128            
   H= 3.25                 G= .320                 B-V= .782                   
                           ALBEDO= .4228           STYP= V                     
*******************************************************************************
 Date__(UT)__HR:MN, , , hEcl-Lon,hEcl-Lat,      PlAng,  Tru_Anom,  App_Lon_Sun,
*******************************************************************************
$$SOE
 2011-Sep-01 00:00, , , 320.3861, -4.2562,   -0.01163,   66.8112,  268.9789726,
 2011-Oct-01 00:00, , , 329.0980, -5.0750,   -0.01135,   75.5172,  277.7003966,
 2011-Nov-01 00:00, , , 337.8944, -5.7816,   -0.01104,   84.2784,  286.4854942,
 2011-Dec-01 00:00, , , 346.2078, -6.3241,   -0.01073,   92.5361,  294.7700639,
 2012-Jan-01 00:00, , , 354.5964, -6.7370,   -0.01038,  100.8489,  303.1140803,
 2012-Feb-01 00:00, , ,   2.7869, -7.0019,   -0.01003,  108.9472,  311.2496749,
 2012-Mar-01 00:00, , ,  10.2786, -7.1202,   -0.00969,  116.3425,  318.6850307,
 2012-Apr-01 00:00, , ,  18.1166, -7.1151,   -0.00932,  124.0684,  326.4620335,
 2012-May-01 00:00, , ,  25.5474, -6.9886,   -0.00897,  131.3834,  333.8370967,
 2012-Jun-01 00:00, , ,  33.0819, -6.7415,   -0.00860,  138.7985,  341.3211506,
 2012-Jul-01 00:00, , ,  40.2502, -6.3988,   -0.00825,  145.8574,  348.4502924,
 2012-Aug-01 00:00, , ,  47.5484, -5.9473,   -0.00789,  153.0547,  355.7198509,
 2012-Sep-01 00:00, , ,  54.7546, -5.4066,   -0.00752,  160.1789,    2.9110565,
 2012-Oct-01 00:00, , ,  61.6599, -4.8075,   -0.00716,  167.0227,    9.8151162,
 2012-Nov-01 00:00, , ,  68.7449, -4.1194,   -0.00678,  174.0603,   16.9123147,
 2012-Dec-01 00:00, , ,  75.5723, -3.3956,   -0.00641,  180.8555,   23.7638572,
 2013-Jan-01 00:00, , ,  82.6187, -2.5970,   -0.00602,  187.8780,   30.8464354,
 2013-Feb-01 00:00, , ,  89.6788, -1.7564,   -0.00564,  194.9226,   37.9519821,
 2013-Mar-01 00:00, , ,  96.0867, -0.9694,   -0.00528,  201.3239,   44.4067503,
 2013-Apr-01 00:00, , , 103.2373, -0.0768,   -0.00489,  208.4722,   51.6129758,
 2013-May-01 00:00, , , 110.2352,  0.7981,   -0.00450,  215.4722,   58.6655747,
 2013-Jun-01 00:00, , , 117.5706,  1.7018,   -0.00410,  222.8111,   66.0549494,
 2013-Jul-01 00:00, , , 124.7929,  2.5637,   -0.00370,  230.0318,   73.3236385,
 2013-Aug-01 00:00, , , 132.4067,  3.4269,   -0.00328,  237.6379,   80.9759658,
 2013-Sep-01 00:00, , , 140.1965,  4.2461,   -0.00285,  245.4134,   88.7913774,
 2013-Oct-01 00:00, , , 147.9228,  4.9799,   -0.00242,  253.1176,   96.5274524,
 2013-Nov-01 00:00, , , 156.1190,  5.6582,   -0.00196,  261.2850,  104.7163368,
 2013-Dec-01 00:00, , , 164.2706,  6.2176,   -0.00151,  269.4021,  112.8432129,
 2014-Jan-01 00:00, , , 172.9310,  6.6742,   -0.00102,  278.0155,  121.4607577,
 2014-Feb-01 00:00, , , 181.8364,  6.9856,   -0.00052,  286.8629,  130.3083204,
 2014-Mar-01 00:00, , , 190.0880,  7.1253,   -0.00006,  295.0532,  138.4984725,
 2014-Apr-01 00:00, , , 199.4432,  7.1069,    0.00045,  304.3335,  147.7814198,
 2014-May-01 00:00, , , 208.6976,  6.9045,    0.00095,  313.5188,  156.9687339,
 2014-Jun-01 00:00, , , 218.4398,  6.4988,    0.00147,  323.2031,  166.6526907,
 2014-Jul-01 00:00, , , 228.0071,  5.9185,    0.00196,  332.7339,  176.1813271,
 2014-Aug-01 00:00, , , 237.9955,  5.1368,    0.00247,  342.7115,  186.1537516,
 2014-Sep-01 00:00, , , 248.0418,  4.1921,    0.00297,  352.7744,  196.2110422,
 2014-Oct-01 00:00, , , 257.7744,  3.1520,    0.00344,    2.5458,  205.9789940,
 2014-Nov-01 00:00, , , 267.7973,  1.9841,    0.00391,   12.6284,  216.0594941,
 2014-Dec-01 00:00, , , 277.4244,  0.8034,    0.00434,   22.3247,  225.7556545,
 2015-Jan-01 00:00, , , 287.2610, -0.4269,    0.00476,   32.2382,  235.6686556,
 2015-Feb-01 00:00, , , 296.9535, -1.6266,    0.00515,   42.0066,  245.4333384,
 2015-Mar-01 00:00, , , 305.5630, -2.6533,    0.00547,   50.6748,  254.0977819,
 2015-Apr-01 00:00, , , 314.9170, -3.6986,    0.00580,   60.0767,  263.4954685,
 2015-May-01 00:00, , , 323.7789, -4.5968,    0.00609,   68.9640,  272.3794209,
 2015-Jun-01 00:00, , , 332.7315, -5.3911,    0.00636,   77.9166,  281.3330837,
 2015-Jul-01 00:00, , , 341.1941, -6.0205,    0.00660,   86.3580,  289.7770709,
 2015-Aug-01 00:00, , , 349.7319, -6.5224,    0.00681,   94.8598,  298.2783769,
 2015-Sep-01 00:00, , , 358.0640, -6.8734,    0.00700,  103.1454,  306.5608393,
 2015-Oct-01 00:00, , ,   5.9389, -7.0728,    0.00717,  110.9728,  314.3799356,
 2015-Nov-01 00:00, , ,  13.8922, -7.1400,    0.00734,  118.8792,  322.2723026,
 2015-Dec-01 00:00, , ,  21.4230, -7.0783,    0.00749,  126.3655,  329.7453428,
 2016-Jan-01 00:00, , ,  29.0481, -6.8926,    0.00762,  133.9479,  337.3160003,
 2016-Feb-01 00:00, , ,  36.5306, -6.5928,    0.00775,  141.3936,  344.7526296,
 2016-Mar-01 00:00, , ,  43.4172, -6.2178,    0.00785,  148.2518,  351.6064600,
 2016-Apr-01 00:00, , ,  50.6762, -5.7256,    0.00795,  155.4917,  358.8427102,
 2016-May-01 00:00, , ,  57.6186, -5.1685,    0.00803,  162.4297,    5.7761384,
 2016-Jun-01 00:00, , ,  64.7276, -4.5188,    0.00811,  169.5476,   12.8894972,
 2016-Jul-01 00:00, , ,  71.5648, -3.8273,    0.00818,  176.4061,   19.7435011,
 2016-Aug-01 00:00, , ,  78.6076, -3.0571,    0.00824,  183.4810,   26.8155865,
 2016-Sep-01 00:00, , ,  85.6501, -2.2398,    0.00830,  190.5635,   33.8979596,
 2016-Oct-01 00:00, , ,  92.4874, -1.4129,    0.00834,  197.4475,   40.7815196,
 2016-Nov-01 00:00, , ,  99.5982, -0.5312,    0.00838,  204.6137,   47.9457418,
 2016-Dec-01 00:00, , , 106.5464,  0.3386,    0.00841,  211.6215,   54.9481355,
 2017-Jan-01 00:00, , , 113.8192,  1.2434,    0.00843,  218.9600,   62.2761107,
 2017-Feb-01 00:00, , , 121.2106,  2.1417,    0.00845,  226.4141,   69.7186082,
 2017-Mar-01 00:00, , , 128.0091,  2.9360,    0.00846,  233.2625,   76.5565804,
